STARLINK-31206          
1 59028U 24038F   26068.41316328 -.00000655  00000+0 -14307-4 0  9997
2 59028  42.9983 323.5845 0000464 349.5799  10.5043 15.27574840115486
TRANSPORTER-12 OBJECT BT
1 62674U 25009BT  26068.71416991  .00013824  00000+0  51029-3 0  9998
2 62674  97.4094 151.5992 0003682 313.5044  46.5889 15.27872239121360
